{"type": "FeatureCollection", "features": [ {"type": "Feature", "properties": {"norad_id": 33779, "name": "COSMOS 2251 DEB", "group": "cosmos-2251-debris", "lat": 62.606096089444264, "lon": -148.0087377521305, "alt_km": 663.6384317639249, "timestamp": "2025-12-08T17:43:05.330098+00:00", "meta": {"OBJECT_NAME": "COSMOS 2251 DEB", "OBJECT_ID": "1993-036U", "EPOCH": "2025-12-07T20:15:00.685152", "MEAN_MOTION": 14.70294313, "ECCENTRICITY": 0.00174114, "INCLINATION": 74.0443, "RA_OF_ASC_NODE": 180.2145, "ARG_OF_PERICENTER": 214.547, "MEAN_ANOMALY": 160.3407, "EPHEMERIS_TYPE": 0, "CLASSIFICATION_TYPE": "U", "NORAD_CAT_ID": 33779, "ELEMENT_SET_NO": 999, "REV_AT_EPOCH": 88456, "BSTAR": 0.0024352448, "MEAN_MOTION_DOT": 0.00014738, "MEAN_MOTION_DDOT": 0}, "tle": {"line1": "1 33779U 93036U   25341.84375793  .00014738  00000+0  24352-2 0  9991", "line2": "2 33779  74.0443 180.2145 0017411 214.5470 160.3407 14.70294313884567"}}, "geometry": {"type": "Point", "coordinates": [-148.0087377521305, 62.606096089444264]}}, {"type": "Feature", "properties": {"norad_id": 33782, "name": "COSMOS 2251 DEB", "group": "cosmos-2251-debris", "lat": -70.67229209907461, "lon": 159.65766495960077, "alt_km": 764.3371990377409, "timestamp": "2025-12-08T17:43:05.330111+00:00", "meta": {"OBJECT_NAME": "COSMOS 2251 DEB", "OBJECT_ID": "1993-036X", "EPOCH": "2025-12-08T07:05:04.439328", "MEAN_MOTION": 14.40428969, "ECCENTRICITY": 0.00205996, "INCLINATION": 74.0341, "RA_OF_ASC_NODE": 285.7663, "ARG_OF_PERICENTER": 351.278, "MEAN_ANOMALY": 131.2987, "EPHEMERIS_TYPE": 0, "CLASSIFICATION_TYPE": "U", "NORAD_CAT_ID": 33782, "ELEMENT_SET_NO": 999, "REV_AT_EPOCH": 88062, "BSTAR": 0.00082661734, "MEAN_MOTION_DOT": 2.607e-05, "MEAN_MOTION_DDOT": 0}, "tle": {"line1": "1 33782U 93036X   25342.29519027  .00002607  00000+0  82662-3 0  9996", "line2": "2 33782  74.0341 285.7663 0020599 351.2780 131.2987 14.40428969880624"}}, "geometry": {"type": "Point", "coordinates": [159.65766495960077, -70.67229209907461]}}, {"type": "Feature", "properties": {"norad_id": 33785, "name": "COSMOS 2251 DEB", "group": "cosmos-2251-debris", "lat": 38.238512002792575, "lon": 80.95627606743479, "alt_km": 643.7622392784042, "timestamp": "2025-12-08T17:43:05.330123+00:00", "meta": {"OBJECT_NAME": "COSMOS 2251 DEB", "OBJECT_ID": "1993-036AA", "EPOCH": "2025-12-08T08:00:41.083776", "MEAN_MOTION": 14.70324506, "ECCENTRICITY": 0.00218687, "INCLINATION": 73.8678, "RA_OF_ASC_NODE": 68.5645, "ARG_OF_PERICENTER": 8.9681, "MEAN_ANOMALY": 51.1598, "EPHEMERIS_TYPE": 0, "CLASSIFICATION_TYPE": "U", "NORAD_CAT_ID": 33785, "ELEMENT_SET_NO": 999, "REV_AT_EPOCH": 88442, "BSTAR": 0.0024833158, "MEAN_MOTION_DOT": 0.0001506, "MEAN_MOTION_DDOT": 0}, "tle": {"line1": "1 33785U 93036AA  25342.33380884  .00015060  00000+0  24833-2 0  9993", "line2": "2 33785  73.8678  68.5645 0021868   8.9681  51.1598 14.70324506884425"}}, "geometry": {"type": "Point", "coordinates": [80.95627606743479, 38.238512002792575]}}, {"type": "Feature", "properties": {"norad_id": 33789, "name": "COSMOS 2251 DEB", "group": "cosmos-2251-debris", "lat": -42.38725660748943, "lon": 79.08244120287395, "alt_km": 980.2533757118154, "timestamp": "2025-12-08T17:43:05.330135+00:00", "meta": {"OBJECT_NAME": "COSMOS 2251 DEB", "OBJECT_ID": "1993-036AE", "EPOCH": "2025-12-08T07:53:08.251872", "MEAN_MOTION": 13.88780161, "ECCENTRICITY": 0.02403474, "INCLINATION": 74.0651, "RA_OF_ASC_NODE": 94.8924, "ARG_OF_PERICENTER": 211.494, "MEAN_ANOMALY": 213.9092, "EPHEMERIS_TYPE": 0, "CLASSIFICATION_TYPE": "U", "NORAD_CAT_ID": 33789, "ELEMENT_SET_NO": 999, "REV_AT_EPOCH": 85034, "BSTAR": 0.0013951385, "MEAN_MOTION_DOT": 2.097e-05, "MEAN_MOTION_DDOT": 0}, "tle": {"line1": "1 33789U 93036AE  25342.32856773  .00002097  00000+0  13951-2 0  9996", "line2": "2 33789  74.0651  94.8924 0240347 211.4940 213.9092 13.88780161850341"}}, "geometry": {"type": "Point", "coordinates": [79.08244120287395, -42.38725660748943]}}, {"type": "Feature", "properties": {"norad_id": 33791, "name": "COSMOS 2251 DEB", "group": "cosmos-2251-debris", "lat": 52.27697284589611, "lon": -156.55907934710703, "alt_km": 753.3334230969376, "timestamp": "2025-12-08T17:43:05.330147+00:00", "meta": {"OBJECT_NAME": "COSMOS 2251 DEB", "OBJECT_ID": "1993-036AG", "EPOCH": "2025-12-08T07:30:26.556768", "MEAN_MOTION": 14.43088783, "ECCENTRICITY": 0.00305891, "INCLINATION": 74.1754, "RA_OF_ASC_NODE": 45.7335, "ARG_OF_PERICENTER": 243.7434, "MEAN_ANOMALY": 191.8465, "EPHEMERIS_TYPE": 0, "CLASSIFICATION_TYPE": "U", "NORAD_CAT_ID": 33791, "ELEMENT_SET_NO": 999, "REV_AT_EPOCH": 87988, "BSTAR": 0.0011172796, "MEAN_MOTION_DOT": 3.745e-05, "MEAN_MOTION_DDOT": 0}, "tle": {"line1": "1 33791U 93036AG  25342.31280737  .00003745  00000+0  11173-2 0  9994", "line2": "2 33791  74.1754  45.7335 0030589 243.7434 191.8465 14.43088783879882"}}, "geometry": {"type": "Point", "coordinates": [-156.55907934710703, 52.27697284589611]}}, {"type": "Feature", "properties": {"norad_id": 33792, "name": "COSMOS 2251 DEB", "group": "cosmos-2251-debris", "lat": 39.38721141894942, "lon": 158.0189112510126, "alt_km": 1023.6390176722034, "timestamp": "2025-12-08T17:43:05.330158+00:00", "meta": {"OBJECT_NAME": "COSMOS 2251 DEB", "OBJECT_ID": "1993-036AH", "EPOCH": "2025-12-08T04:58:47.582688", "MEAN_MOTION": 13.45812249, "ECCENTRICITY": 0.04269007, "INCLINATION": 73.9009, "RA_OF_ASC_NODE": 352.582, "ARG_OF_PERICENTER": 58.0786, "MEAN_ANOMALY": 25.1373, "EPHEMERIS_TYPE": 0, "CLASSIFICATION_TYPE": "U", "NORAD_CAT_ID": 33792, "ELEMENT_SET_NO": 999, "REV_AT_EPOCH": 82381, "BSTAR": 0.00098709468, "MEAN_MOTION_DOT": 1.003e-05, "MEAN_MOTION_DDOT": 0}, "tle": {"line1": "1 33792U 93036AH  25342.20749517  .00001003  00000+0  98709-3 0  9995", "line2": "2 33792  73.9009 352.5820 0426900  58.0786  25.1373 13.45812249823816"}}, "geometry": {"type": "Point", "coordinates": [158.0189112510126, 39.38721141894942]}}, {"type": "Feature", "properties": {"norad_id": 33793, "name": "COSMOS 2251 DEB", "group": "cosmos-2251-debris", "lat": -46.98288612017028, "lon": -4.876360830222987, "alt_km": 794.3323798584288, "timestamp": "2025-12-08T17:43:05.330170+00:00", "meta": {"OBJECT_NAME": "COSMOS 2251 DEB", "OBJECT_ID": "1993-036AJ", "EPOCH": "2025-12-07T21:00:44.933184", "MEAN_MOTION": 14.27698729, "ECCENTRICITY": 0.0078334, "INCLINATION": 73.9804, "RA_OF_ASC_NODE": 158.7579, "ARG_OF_PERICENTER": 309.8304, "MEAN_ANOMALY": 168.0337, "EPHEMERIS_TYPE": 0, "CLASSIFICATION_TYPE": "U", "NORAD_CAT_ID": 33793, "ELEMENT_SET_NO": 999, "REV_AT_EPOCH": 87137, "BSTAR": 0.0010779297, "MEAN_MOTION_DOT": 2.721e-05, "MEAN_MOTION_DDOT": 0}, "tle": {"line1": "1 33793U 93036AJ  25341.87552006  .00002721  00000+0  10779-2 0  9991", "line2": "2 33793  73.9804 158.7579 0078334 309.8304 168.0337 14.27698729871371"}}, "geometry": {"type": "Point", "coordinates": [-4.876360830222987, -46.98288612017028]}}, {"type": "Feature", "properties": {"norad_id": 33795, "name": "COSMOS 2251 DEB", "group": "cosmos-2251-debris", "lat": 39.60913950050165, "lon": -108.76477269215407, "alt_km": 528.290516791626, "timestamp": "2025-12-08T17:43:05.330181+00:00", "meta": {"OBJECT_NAME": "COSMOS 2251 DEB", "OBJECT_ID": "1993-036AL", "EPOCH": "2025-12-08T07:47:40.500384", "MEAN_MOTION": 15.05255975, "ECCENTRICITY": 0.00322029, "INCLINATION": 74.0332, "RA_OF_ASC_NODE": 85.7881, "ARG_OF_PERICENTER": 171.0354, "MEAN_ANOMALY": 247.8515, "EPHEMERIS_TYPE": 0, "CLASSIFICATION_TYPE": "U", "NORAD_CAT_ID": 33795, "ELEMENT_SET_NO": 999, "REV_AT_EPOCH": 89955, "BSTAR": 0.0017662563, "MEAN_MOTION_DOT": 0.00025586, "MEAN_MOTION_DDOT": 0}, "tle": {"line1": "1 33795U 93036AL  25342.32477431  .00025586  00000+0  17663-2 0  9995", "line2": "2 33795  74.0332  85.7881 0032202 171.0354 247.8515 15.05255975899557"}}, "geometry": {"type": "Point", "coordinates": [-108.76477269215407, 39.60913950050165]}}, {"type": "Feature", "properties": {"norad_id": 33797, "name": "COSMOS 2251 DEB", "group": "cosmos-2251-debris", "lat": -69.55833853947665, "lon": -7.556203895648292, "alt_km": 744.8907568379509, "timestamp": "2025-12-08T17:43:05.330192+00:00", "meta": {"OBJECT_NAME": "COSMOS 2251 DEB", "OBJECT_ID": "1993-036AN", "EPOCH": "2025-12-08T06:51:01.041408", "MEAN_MOTION": 14.57821358, "ECCENTRICITY": 0.0060907, "INCLINATION": 74.048, "RA_OF_ASC_NODE": 43.4246, "ARG_OF_PERICENTER": 132.6471, "MEAN_ANOMALY": 294.4494, "EPHEMERIS_TYPE": 0, "CLASSIFICATION_TYPE": "U", "NORAD_CAT_ID": 33797, "ELEMENT_SET_NO": 999, "REV_AT_EPOCH": 88920, "BSTAR": 0.00070111725, "MEAN_MOTION_DOT": 3.263e-05, "MEAN_MOTION_DDOT": 0}, "tle": {"line1": "1 33797U 93036AN  25342.28542872  .00003263  00000+0  70112-3 0  9991", "line2": "2 33797  74.0480  43.4246 0060907 132.6471 294.4494 14.57821358889200"}}, "geometry": {"type": "Point", "coordinates": [-7.556203895648292, -69.55833853947665]}}, {"type": "Feature", "properties": {"norad_id": 33798, "name": "COSMOS 2251 DEB", "group": "cosmos-2251-debris", "lat": -6.509801567969704, "lon": 141.4859211025142, "alt_km": 743.5590566862911, "timestamp": "2025-12-08T17:43:05.330202+00:00", "meta": {"OBJECT_NAME": "COSMOS 2251 DEB", "OBJECT_ID": "1993-036AP", "EPOCH": "2025-12-08T05:17:28.961376", "MEAN_MOTION": 14.44606193, "ECCENTRICITY": 0.00925117, "INCLINATION": 74.0278, "RA_OF_ASC_NODE": 144.3229, "ARG_OF_PERICENTER": 266.6768, "MEAN_ANOMALY": 273.9297, "EPHEMERIS_TYPE": 0, "CLASSIFICATION_TYPE": "U", "NORAD_CAT_ID": 33798, "ELEMENT_SET_NO": 999, "REV_AT_EPOCH": 88528, "BSTAR": 0.00030696163, "MEAN_MOTION_DOT": 1.09e-05, "MEAN_MOTION_DDOT": 0}, "tle": {"line1": "1 33798U 93036AP  25342.22047409  .00001090  00000+0  30696-3 0  9991", "line2": "2 33798  74.0278 144.3229 0092511 266.6768 273.9297 14.44606193885282"}}, "geometry": {"type": "Point", "coordinates": [141.4859211025142, -6.509801567969704]}}]}